TRANSPORTER-11 OBJECT A 
1 60468U 24149A   26068.74646182  .00010774  00000+0  36054-3 0  9993
2 60468  97.3780 149.0949 0003110 191.0010 169.1164 15.31141332 86830
STARLINK-32583          
1 61955U 24209S   26068.55088019  .00013207  00000+0  45789-3 0  9999
2 61955  53.1558 143.1872 0001009  36.5308 323.5761 15.30153869 74892
